STARLINK-5287           
1 55293U 23010AA  26066.91271862  .00299879  00000+0  22781-1 0  9990
2 55293  70.0019  28.9133 0012340 247.6439 112.3413 15.00435029173009
NIGHTJAR                
1 60535U 24149BV  26068.64552146  .00004278  00000+0  36344-3 0  9997
2 60535  97.6919 146.7603 0002393  83.3363 276.8132 14.98398810127967
