[{"OBJECT_NAME":"STARLINK-5287","OBJECT_ID":"2023-010AA","EPOCH":"2026-03-07T21:54:18.888768","MEAN_MOTION":15.00435029,"ECCENTRICITY":0.00123408,"INCLINATION":70.0019,"RA_OF_ASC_NODE":28.9133,"ARG_OF_PERICENTER":247.6439,"MEAN_ANOMALY":112.3413,"EPHEMERIS_TYPE":0,"CLASSIFICATION_TYPE":"U","NORAD_CAT_ID":55293,"ELEMENT_SET_NO":999,"REV_AT_EPOCH":17300,"BSTAR":0.022780995,"MEAN_MOTION_DOT":0.00299879,"MEAN_MOTION_DDOT":0},{"OBJECT_NAME":"NIGHTJAR","OBJECT_ID":"2024-149BV","EPOCH":"2026-03-09T15:29:33.054144","MEAN_MOTION":14.9839881,"ECCENTRICITY":0.00023928,"INCLINATION":97.6919,"RA_OF_ASC_NODE":146.7603,"ARG_OF_PERICENTER":83.3363,"MEAN_ANOMALY":276.8132,"EPHEMERIS_TYPE":0,"CLASSIFICATION_TYPE":"U","NORAD_CAT_ID":60535,"ELEMENT_SET_NO":999,"REV_AT_EPOCH":12796,"BSTAR":0.00036343971,"MEAN_MOTION_DOT":4.278e-5,"MEAN_MOTION_DDOT":0}]
